{"type": "FeatureCollection", "features": [ {"type": "Feature", "properties": {"norad_id": 34031, "name": "COSMOS 2251 DEB", "group": "cosmos-2251-debris", "lat": -3.8134351043511368, "lon": -66.21108994412765, "alt_km": 686.1451262760093, "timestamp": "2025-12-24T18:55:56.465365+00:00", "meta": {"OBJECT_NAME": "COSMOS 2251 DEB", "OBJECT_ID": "1993-036HS", "EPOCH": "2025-12-24T03:35:20.512608", "MEAN_MOTION": 14.5981325, "ECCENTRICITY": 0.00228597, "INCLINATION": 74.0133, "RA_OF_ASC_NODE": 113.9147, "ARG_OF_PERICENTER": 233.7561, "MEAN_ANOMALY": 191.9019, "EPHEMERIS_TYPE": 0, "CLASSIFICATION_TYPE": "U", "NORAD_CAT_ID": 34031, "ELEMENT_SET_NO": 999, "REV_AT_EPOCH": 88732, "BSTAR": 0.0013735105, "MEAN_MOTION_DOT": 6.565e-05, "MEAN_MOTION_DDOT": 0}, "tle": {"line1": "1 34031U 93036HS  25358.14954297  .00006565  00000+0  13735-2 0  9998", "line2": "2 34031  74.0133 113.9147 0022859 233.7561 191.9019 14.59813250887326"}}, "geometry": {"type": "Point", "coordinates": [-66.21108994412765, -3.8134351043511368]}}, {"type": "Feature", "properties": {"norad_id": 34035, "name": "COSMOS 2251 DEB", "group": "cosmos-2251-debris", "lat": 11.48064462700896, "lon": -30.195537107578705, "alt_km": 697.5902101268248, "timestamp": "2025-12-24T18:55:56.465375+00:00", "meta": {"OBJECT_NAME": "COSMOS 2251 DEB", "OBJECT_ID": "1993-036HW", "EPOCH": "2025-12-24T02:55:27.395040", "MEAN_MOTION": 14.52083306, "ECCENTRICITY": 0.00452705, "INCLINATION": 74.0663, "RA_OF_ASC_NODE": 327.7321, "ARG_OF_PERICENTER": 327.1243, "MEAN_ANOMALY": 159.2149, "EPHEMERIS_TYPE": 0, "CLASSIFICATION_TYPE": "U", "NORAD_CAT_ID": 34035, "ELEMENT_SET_NO": 999, "REV_AT_EPOCH": 88131, "BSTAR": 0.0018185288, "MEAN_MOTION_DOT": 7.438e-05, "MEAN_MOTION_DDOT": 0}, "tle": {"line1": "1 34035U 93036HW  25358.12184485  .00007438  00000+0  18185-2 0  9998", "line2": "2 34035  74.0663 327.7321 0045270 327.1243 159.2149 14.52083306881312"}}, "geometry": {"type": "Point", "coordinates": [-30.195537107578705, 11.48064462700896]}}, {"type": "Feature", "properties": {"norad_id": 34036, "name": "COSMOS 2251 DEB", "group": "cosmos-2251-debris", "lat": -6.717935108935468, "lon": 122.99443679072843, "alt_km": 589.5286675925126, "timestamp": "2025-12-24T18:55:56.465385+00:00", "meta": {"OBJECT_NAME": "COSMOS 2251 DEB", "OBJECT_ID": "1993-036HX", "EPOCH": "2025-12-24T02:54:45.641376", "MEAN_MOTION": 14.95850479, "ECCENTRICITY": 0.00098838, "INCLINATION": 74.0199, "RA_OF_ASC_NODE": 126.2774, "ARG_OF_PERICENTER": 154.5992, "MEAN_ANOMALY": 205.568, "EPHEMERIS_TYPE": 0, "CLASSIFICATION_TYPE": "U", "NORAD_CAT_ID": 34036, "ELEMENT_SET_NO": 999, "REV_AT_EPOCH": 88740, "BSTAR": 0.0039066339, "MEAN_MOTION_DOT": 0.00043945, "MEAN_MOTION_DDOT": 0}, "tle": {"line1": "1 34036U 93036HX  25358.12136159  .00043945  00000+0  39066-2 0  9998", "line2": "2 34036  74.0199 126.2774 0009883 154.5992 205.5680 14.95850479887405"}}, "geometry": {"type": "Point", "coordinates": [122.99443679072843, -6.717935108935468]}}, {"type": "Feature", "properties": {"norad_id": 34037, "name": "COSMOS 2251 DEB", "group": "cosmos-2251-debris", "lat": -56.862581705612556, "lon": 2.4105442896650895, "alt_km": 809.0077934388128, "timestamp": "2025-12-24T18:55:56.465395+00:00", "meta": {"OBJECT_NAME": "COSMOS 2251 DEB", "OBJECT_ID": "1993-036HY", "EPOCH": "2025-12-24T04:09:12.021984", "MEAN_MOTION": 14.3469283, "ECCENTRICITY": 0.00518111, "INCLINATION": 74.051, "RA_OF_ASC_NODE": 29.5165, "ARG_OF_PERICENTER": 75.9578, "MEAN_ANOMALY": 284.7326, "EPHEMERIS_TYPE": 0, "CLASSIFICATION_TYPE": "U", "NORAD_CAT_ID": 34037, "ELEMENT_SET_NO": 999, "REV_AT_EPOCH": 87881, "BSTAR": 0.00041005158, "MEAN_MOTION_DOT": 1.153e-05, "MEAN_MOTION_DDOT": 0}, "tle": {"line1": "1 34037U 93036HY  25358.17305581  .00001153  00000+0  41005-3 0  9993", "line2": "2 34037  74.0510  29.5165 0051811  75.9578 284.7326 14.34692830878815"}}, "geometry": {"type": "Point", "coordinates": [2.4105442896650895, -56.862581705612556]}}, {"type": "Feature", "properties": {"norad_id": 34040, "name": "COSMOS 2251 DEB", "group": "cosmos-2251-debris", "lat": -15.011991262695867, "lon": -129.62006124853994, "alt_km": 1248.9708557277554, "timestamp": "2025-12-24T18:55:56.465406+00:00", "meta": {"OBJECT_NAME": "COSMOS 2251 DEB", "OBJECT_ID": "1993-036JB", "EPOCH": "2025-12-23T06:52:57.728064", "MEAN_MOTION": 13.68391604, "ECCENTRICITY": 0.03433961, "INCLINATION": 73.9556, "RA_OF_ASC_NODE": 48.4352, "ARG_OF_PERICENTER": 359.6695, "MEAN_ANOMALY": 0.414, "EPHEMERIS_TYPE": 0, "CLASSIFICATION_TYPE": "U", "NORAD_CAT_ID": 34040, "ELEMENT_SET_NO": 999, "REV_AT_EPOCH": 83744, "BSTAR": 0.00069489491, "MEAN_MOTION_DOT": 8.74e-06, "MEAN_MOTION_DDOT": 0}, "tle": {"line1": "1 34040U 93036JB  25357.28677926  .00000874  00000+0  69489-3 0  9998", "line2": "2 34040  73.9556  48.4352 0343396 359.6695   0.4140 13.68391604837441"}}, "geometry": {"type": "Point", "coordinates": [-129.62006124853994, -15.011991262695867]}}, {"type": "Feature", "properties": {"norad_id": 34045, "name": "COSMOS 2251 DEB", "group": "cosmos-2251-debris", "lat": -40.164361012544646, "lon": -85.19210289302895, "alt_km": 772.5084034505016, "timestamp": "2025-12-24T18:55:56.465416+00:00", "meta": {"OBJECT_NAME": "COSMOS 2251 DEB", "OBJECT_ID": "1993-036JG", "EPOCH": "2025-12-24T06:16:14.413152", "MEAN_MOTION": 14.34075138, "ECCENTRICITY": 0.00261409, "INCLINATION": 74.0396, "RA_OF_ASC_NODE": 289.7501, "ARG_OF_PERICENTER": 10.1056, "MEAN_ANOMALY": 105.5067, "EPHEMERIS_TYPE": 0, "CLASSIFICATION_TYPE": "U", "NORAD_CAT_ID": 34045, "ELEMENT_SET_NO": 999, "REV_AT_EPOCH": 88198, "BSTAR": 0.00010128207, "MEAN_MOTION_DOT": 2.58e-06, "MEAN_MOTION_DDOT": 0}, "tle": {"line1": "1 34045U 93036JG  25358.26127793  .00000258  00000+0  10128-3 0  9996", "line2": "2 34045  74.0396 289.7501 0026140  10.1056 105.5067 14.34075138881989"}}, "geometry": {"type": "Point", "coordinates": [-85.19210289302895, -40.164361012544646]}}, {"type": "Feature", "properties": {"norad_id": 34046, "name": "COSMOS 2251 DEB", "group": "cosmos-2251-debris", "lat": 49.919399822353526, "lon": 148.0920370603139, "alt_km": 704.6308823337286, "timestamp": "2025-12-24T18:55:56.465427+00:00", "meta": {"OBJECT_NAME": "COSMOS 2251 DEB", "OBJECT_ID": "1993-036JH", "EPOCH": "2025-12-23T09:52:11.144640", "MEAN_MOTION": 14.46554908, "ECCENTRICITY": 0.00745071, "INCLINATION": 74.0395, "RA_OF_ASC_NODE": 350.5457, "ARG_OF_PERICENTER": 70.7911, "MEAN_ANOMALY": 84.5304, "EPHEMERIS_TYPE": 0, "CLASSIFICATION_TYPE": "U", "NORAD_CAT_ID": 34046, "ELEMENT_SET_NO": 999, "REV_AT_EPOCH": 87980, "BSTAR": 0.0012677782, "MEAN_MOTION_DOT": 4.705e-05, "MEAN_MOTION_DDOT": 0}, "tle": {"line1": "1 34046U 93036JH  25357.41124010  .00004705  00000+0  12678-2 0  9994", "line2": "2 34046  74.0395 350.5457 0074507  70.7911  84.5304 14.46554908879806"}}, "geometry": {"type": "Point", "coordinates": [148.0920370603139, 49.919399822353526]}}, {"type": "Feature", "properties": {"norad_id": 34050, "name": "COSMOS 2251 DEB", "group": "cosmos-2251-debris", "lat": -20.096916307645994, "lon": -16.607156853655272, "alt_km": 858.9937828787906, "timestamp": "2025-12-24T18:55:56.465437+00:00", "meta": {"OBJECT_NAME": "COSMOS 2251 DEB", "OBJECT_ID": "1993-036JM", "EPOCH": "2025-12-23T10:53:59.277120", "MEAN_MOTION": 13.9620468, "ECCENTRICITY": 0.02147715, "INCLINATION": 74.0882, "RA_OF_ASC_NODE": 351.6725, "ARG_OF_PERICENTER": 53.2494, "MEAN_ANOMALY": 62.2497, "EPHEMERIS_TYPE": 0, "CLASSIFICATION_TYPE": "U", "NORAD_CAT_ID": 34050, "ELEMENT_SET_NO": 999, "REV_AT_EPOCH": 85581, "BSTAR": 0.00070488954, "MEAN_MOTION_DOT": 1.154e-05, "MEAN_MOTION_DDOT": 0}, "tle": {"line1": "1 34050U 93036JM  25357.45415830  .00001154  00000+0  70489-3 0  9996", "line2": "2 34050  74.0882 351.6725 0214771  53.2494  62.2497 13.96204680855817"}}, "geometry": {"type": "Point", "coordinates": [-16.607156853655272, -20.096916307645994]}}, {"type": "Feature", "properties": {"norad_id": 34053, "name": "COSMOS 2251 DEB", "group": "cosmos-2251-debris", "lat": 71.64687335352845, "lon": -76.33962360312432, "alt_km": 958.119213631072, "timestamp": "2025-12-24T18:55:56.465447+00:00", "meta": {"OBJECT_NAME": "COSMOS 2251 DEB", "OBJECT_ID": "1993-036JQ", "EPOCH": "2025-12-24T00:45:47.385216", "MEAN_MOTION": 13.49177905, "ECCENTRICITY": 0.04228288, "INCLINATION": 73.843, "RA_OF_ASC_NODE": 223.9749, "ARG_OF_PERICENTER": 10.6711, "MEAN_ANOMALY": 350.3023, "EPHEMERIS_TYPE": 0, "CLASSIFICATION_TYPE": "U", "NORAD_CAT_ID": 34053, "ELEMENT_SET_NO": 999, "REV_AT_EPOCH": 82836, "BSTAR": 0.00057390739, "MEAN_MOTION_DOT": 6.05e-06, "MEAN_MOTION_DDOT": 0}, "tle": {"line1": "1 34053U 93036JQ  25358.03179844  .00000605  00000+0  57391-3 0  9993", "line2": "2 34053  73.8430 223.9749 0422828  10.6711 350.3023 13.49177905828369"}}, "geometry": {"type": "Point", "coordinates": [-76.33962360312432, 71.64687335352845]}}, {"type": "Feature", "properties": {"norad_id": 34056, "name": "COSMOS 2251 DEB", "group": "cosmos-2251-debris", "lat": 68.85168668336891, "lon": -172.80500513229654, "alt_km": 727.4646964285739, "timestamp": "2025-12-24T18:55:56.465457+00:00", "meta": {"OBJECT_NAME": "COSMOS 2251 DEB", "OBJECT_ID": "1993-036JT", "EPOCH": "2025-12-24T05:11:39.170112", "MEAN_MOTION": 14.20594703, "ECCENTRICITY": 0.01237109, "INCLINATION": 74.0581, "RA_OF_ASC_NODE": 55.8553, "ARG_OF_PERICENTER": 100.6783, "MEAN_ANOMALY": 316.9673, "EPHEMERIS_TYPE": 0, "CLASSIFICATION_TYPE": "U", "NORAD_CAT_ID": 34056, "ELEMENT_SET_NO": 999, "REV_AT_EPOCH": 86574, "BSTAR": 0.00070950477, "MEAN_MOTION_DOT": 1.625e-05, "MEAN_MOTION_DDOT": 0}, "tle": {"line1": "1 34056U 93036JT  25358.21642558  .00001625  00000+0  70950-3 0  9992", "line2": "2 34056  74.0581  55.8553 0123710 100.6783 316.9673 14.20594703865745"}}, "geometry": {"type": "Point", "coordinates": [-172.80500513229654, 68.85168668336891]}}]}